start=new Date('2022-11-04T00:00:00.000Z').valueOf();
sats=[{"REV_AT_EPOCH":"8092","RCS_SIZE":"LARGE","ECCENTRICITY":"0.00012020","MEAN_ELEMENT_THEORY":"SGP4","REF_FRAME":"TEME","RA_OF_ASC_NODE":"172.1997","BSTAR":"0.00005990800000","NORAD_CAT_ID":"48695","SEMIMAJOR_AXIS":"6925.345","CENTER_NAME":"EARTH","PERIAPSIS":"546.378","MEAN_MOTION_DOT":"0.00000611","TLE_LINE1":"1 48695U 21044BK  22307.74418819  .00000611  00000-0  59908-4 0  9992","OBJECT_TYPE":"PAYLOAD","ELEMENT_SET_NO":"999","MEAN_ANOMALY":"269.6262","TIME_SYSTEM":"UTC","MEAN_MOTION_DDOT":"0.0000000000000","LAUNCH_DATE":"2021-05-26","EPOCH":"2022-11-03T17:51:37.859616","INCLINATION":"53.0545","GP_ID":"216837098","DECAY_DATE":null,"COUNTRY_CODE":"US","TLE_LINE2":"2 48695  53.0545 172.1997 0001202  90.4865 269.6262 15.06401010 80929","MEAN_MOTION":"15.06401010","EPHEMERIS_TYPE":"0","OBJECT_NAME":"STARLINK-2616","ARG_OF_PERICENTER":"90.4865","APOAPSIS":"548.043","SITE":"AFETR","CLASSIFICATION_TYPE":"U","PERIOD":"95.592","OBJECT_ID":"2021-044BK","FILE":"3643928"},{"GP_ID":"216837218","INCLINATION":"53.0554","EPOCH":"2022-11-03T17:37:42.657600","TIME_SYSTEM":"UTC","LAUNCH_DATE":"2021-05-26","MEAN_MOTION_DDOT":"0.0000000000000","CLASSIFICATION_TYPE":"U","FILE":"3643936","PERIOD":"95.592","OBJECT_ID":"2021-044BL","APOAPSIS":"548.179","SITE":"AFETR","EPHEMERIS_TYPE":"0","OBJECT_NAME":"STARLINK-2753","ARG_OF_PERICENTER":"97.3079","COUNTRY_CODE":"US","TLE_LINE2":"2 48696  53.0554 177.2366 0001417  97.3079 262.8071 15.06405193 80791","DECAY_DATE":null,"MEAN_MOTION":"15.06405193","BSTAR":"0.00017827000000","RA_OF_ASC_NODE":"177.2366","SEMIMAJOR_AXIS":"6925.333","NORAD_CAT_ID":"48696","REF_FRAME":"TEME","RCS_SIZE":"LARGE","REV_AT_EPOCH":"8079","ECCENTRICITY":"0.00014170","MEAN_ELEMENT_THEORY":"SGP4","ELEMENT_SET_NO":"999","MEAN_ANOMALY":"262.8071","PERIAPSIS":"546.216","OBJECT_TYPE":"PAYLOAD","MEAN_MOTION_DOT":"0.00002375","TLE_LINE1":"1 48696U 21044BL  22307.73452150  .00002375  00000-0  17827-3 0  9990","CENTER_NAME":"EARTH"},{"ECCENTRICITY":"0.00015670","MEAN_ELEMENT_THEORY":"SGP4","RCS_SIZE":"LARGE","REV_AT_EPOCH":"7993","REF_FRAME":"TEME","SEMIMAJOR_AXIS":"6925.372","NORAD_CAT_ID":"48697","BSTAR":"0.00012841000000","RA_OF_ASC_NODE":"177.6643","CENTER_NAME":"EARTH","OBJECT_TYPE":"PAYLOAD","TLE_LINE1":"1 48697U 21044BM  22307.63132239  .00001631  00000-0  12841-3 0  9998","MEAN_MOTION_DOT":"0.00001631","PERIAPSIS":"546.152","MEAN_ANOMALY":"270.1610","ELEMENT_SET_NO":"999","LAUNCH_DATE":"2021-05-26","MEAN_MOTION_DDOT":"0.0000000000000","TIME_SYSTEM":"UTC","EPOCH":"2022-11-03T15:09:06.254496","INCLINATION":"53.0545","GP_ID":"216860271","MEAN_MOTION":"15.06392355","TLE_LINE2":"2 48697  53.0545 177.6643 0001567  89.9559 270.1610 15.06392355 79930","COUNTRY_CODE":"US","DECAY_DATE":null,"APOAPSIS":"548.322","SITE":"AFETR","ARG_OF_PERICENTER":"89.9559","OBJECT_NAME":"STARLINK-2715","EPHEMERIS_TYPE":"0","FILE":"3644033","OBJECT_ID":"2021-044BM","PERIOD":"95.593","CLASSIFICATION_TYPE":"U"},{"CENTER_NAME":"EARTH","MEAN_MOTION_DOT":"-0.00094775","TLE_LINE1":"1 48879U 21059A   22308.00001157 -.00094775  00000-0 -71487-2 0  9995","OBJECT_TYPE":"PAYLOAD","PERIAPSIS":"556.335","MEAN_ANOMALY":"216.0912","ELEMENT_SET_NO":"999","MEAN_ELEMENT_THEORY":"SGP4","ECCENTRICITY":"0.00021360","RCS_SIZE":"LARGE","REV_AT_EPOCH":"130","REF_FRAME":"TEME","NORAD_CAT_ID":"48879","SEMIMAJOR_AXIS":"6935.952","BSTAR":"-0.00714870000000","RA_OF_ASC_NODE":"74.3868","MEAN_MOTION":"15.02946945","DECAY_DATE":null,"TLE_LINE2":"2 48879  97.5145  74.3868 0002136  51.8484 216.0912 15.02946945  1307","COUNTRY_CODE":"US","OBJECT_NAME":"STARLINK-3003","ARG_OF_PERICENTER":"51.8484","EPHEMERIS_TYPE":"0","SITE":"AFETR","APOAPSIS":"559.298","PERIOD":"95.812","OBJECT_ID":"2021-059A","FILE":"3644033","CLASSIFICATION_TYPE":"U","LAUNCH_DATE":"2021-06-30","MEAN_MOTION_DDOT":"0.0000000000000","TIME_SYSTEM":"UTC","EPOCH":"2022-11-04T00:00:00.999648","INCLINATION":"97.5145","GP_ID":"216860040"},{"MEAN_ANOMALY":"221.5471","ELEMENT_SET_NO":"999","CENTER_NAME":"EARTH","MEAN_MOTION_DOT":"-0.00085714","TLE_LINE1":"1 48880U 21059B   22308.00001157 -.00085714  00000-0 -64585-2 0  9991","OBJECT_TYPE":"PAYLOAD","PERIAPSIS":"556.405","NORAD_CAT_ID":"48880","SEMIMAJOR_AXIS":"6935.986","RA_OF_ASC_NODE":"74.3888","BSTAR":"-0.00645850000000","ECCENTRICITY":"0.00020850","MEAN_ELEMENT_THEORY":"SGP4","REV_AT_EPOCH":"130","RCS_SIZE":"LARGE","REF_FRAME":"TEME","OBJECT_ID":"2021-059B","PERIOD":"95.812","FILE":"3644033","CLASSIFICATION_TYPE":"U","MEAN_MOTION":"15.02935810","DECAY_DATE":null,"COUNTRY_CODE":"US","TLE_LINE2":"2 48880  97.5142  74.3888 0002085  55.6804 221.5471 15.02935810  1309","ARG_OF_PERICENTER":"55.6804","OBJECT_NAME":"STARLINK-3004","EPHEMERIS_TYPE":"0","SITE":"AFETR","APOAPSIS":"559.297","INCLINATION":"97.5142","GP_ID":"216861292","LAUNCH_DATE":"2021-06-30","MEAN_MOTION_DDOT":"0.0000000000000","TIME_SYSTEM":"UTC","EPOCH":"2022-11-04T00:00:00.999648"},{"SEMIMAJOR_AXIS":"6935.984","NORAD_CAT_ID":"48881","BSTAR":"-0.00759850000000","RA_OF_ASC_NODE":"74.4189","REF_FRAME":"TEME","ECCENTRICITY":"0.00020760","MEAN_ELEMENT_THEORY":"SGP4","REV_AT_EPOCH":"130","RCS_SIZE":"LARGE","MEAN_ANOMALY":"249.4489","ELEMENT_SET_NO":"999","OBJECT_TYPE":"PAYLOAD","TLE_LINE1":"1 48881U 21059C   22308.00001157 -.00100624  00000-0 -75985-2 0  9996","MEAN_MOTION_DOT":"-0.00100624","PERIAPSIS":"556.410","CENTER_NAME":"EARTH","GP_ID":"216861037","INCLINATION":"97.5132","EPOCH":"2022-11-04T00:00:00.999648","MEAN_MOTION_DDOT":"0.0000000000000","LAUNCH_DATE":"2021-06-30","TIME_SYSTEM":"UTC","FILE":"3644033","OBJECT_ID":"2021-059C","PERIOD":"95.812","CLASSIFICATION_TYPE":"U","APOAPSIS":"559.289","SITE":"AFETR","OBJECT_NAME":"STARLINK-3005","ARG_OF_PERICENTER":"50.8462","EPHEMERIS_TYPE":"0","MEAN_MOTION":"15.02936380","COUNTRY_CODE":"US","TLE_LINE2":"2 48881  97.5132  74.4189 0002076  50.8462 249.4489 15.02936380  1302","DECAY_DATE":null},{"REF_FRAME":"TEME","ECCENTRICITY":"0.00029850","MEAN_ELEMENT_THEORY":"SGP4","REV_AT_EPOCH":"6394","RCS_SIZE":"LARGE","NORAD_CAT_ID":"49131","SEMIMAJOR_AXIS":"6949.958","RA_OF_ASC_NODE":"95.1316","BSTAR":"-0.00133030000000","OBJECT_TYPE":"PAYLOAD","TLE_LINE1":"1 49131U 21082B   22307.85268299 -.00015961  00000-0 -13303-2 0  9990","MEAN_MOTION_DOT":"-0.00015961","PERIAPSIS":"569.749","CENTER_NAME":"EARTH","MEAN_ANOMALY":"99.5184","ELEMENT_SET_NO":"999","EPOCH":"2022-11-03T20:27:51.810336","LAUNCH_DATE":"2021-09-14","MEAN_MOTION_DDOT":"0.0000000000000","TIME_SYSTEM":"UTC","GP_ID":"216861571","INCLINATION":"69.9995","APOAPSIS":"573.898","SITE":"AFWTR","OBJECT_NAME":"STARLINK-3096","EPHEMERIS_TYPE":"0","ARG_OF_PERICENTER":"260.5638","MEAN_MOTION":"14.98405844","TLE_LINE2":"2 49131  69.9995  95.1316 0002985 260.5638  99.5184 14.98405844 63941","COUNTRY_CODE":"US","DECAY_DATE":null,"FILE":"3644033","PERIOD":"96.102","OBJECT_ID":"2021-082B","CLASSIFICATION_TYPE":"U"},{"EPOCH":"2022-11-03T13:14:26.187072","TIME_SYSTEM":"UTC","LAUNCH_DATE":"2021-09-14","MEAN_MOTION_DDOT":"0.0000000000000","GP_ID":"216832992","INCLINATION":"69.9983","APOAPSIS":"574.451","SITE":"AFWTR","EPHEMERIS_TYPE":"0","ARG_OF_PERICENTER":"246.5521","OBJECT_NAME":"STARLINK-3090","COUNTRY_CODE":"US","TLE_LINE2":"2 49132  69.9983 135.8890 0003459 246.5521 113.5274 14.98333408 62919","DECAY_DATE":null,"MEAN_MOTION":"14.98333408","CLASSIFICATION_TYPE":"U","FILE":"3643813","PERIOD":"96.107","OBJECT_ID":"2021-082C","REF_FRAME":"TEME","REV_AT_EPOCH":"6291","RCS_SIZE":"LARGE","MEAN_ELEMENT_THEORY":"SGP4","ECCENTRICITY":"0.00034590","RA_OF_ASC_NODE":"135.8890","BSTAR":"-0.00002312100000","NORAD_CAT_ID":"49132","SEMIMAJOR_AXIS":"6950.182","PERIAPSIS":"569.643","OBJECT_TYPE":"PAYLOAD","MEAN_MOTION_DOT":"-0.00000369","TLE_LINE1":"1 49132U 21082C   22307.55169198 -.00000369  00000-0 -23121-4 0  9993","CENTER_NAME":"EARTH","ELEMENT_SET_NO":"999","MEAN_ANOMALY":"113.5274"},{"REF_FRAME":"TEME","MEAN_ELEMENT_THEORY":"SGP4","ECCENTRICITY":"0.00032160","REV_AT_EPOCH":"6294","RCS_SIZE":"LARGE","NORAD_CAT_ID":"49133","SEMIMAJOR_AXIS":"6950.162","RA_OF_ASC_NODE":"135.4019","BSTAR":"0.00018971000000","MEAN_MOTION_DOT":"0.00002172","TLE_LINE1":"1 49133U 21082D   22307.74719804  .00002172  00000-0  18971-3 0  9998","OBJECT_TYPE":"PAYLOAD","PERIAPSIS":"569.792","CENTER_NAME":"EARTH","MEAN_ANOMALY":"120.5089","ELEMENT_SET_NO":"999","EPOCH":"2022-11-03T17:55:57.910656","LAUNCH_DATE":"2021-09-14","MEAN_MOTION_DDOT":"0.0000000000000","TIME_SYSTEM":"UTC","GP_ID":"216839017","INCLINATION":"69.9974","OBJECT_NAME":"STARLINK-3077","ARG_OF_PERICENTER":"239.5752","EPHEMERIS_TYPE":"0","APOAPSIS":"574.262","SITE":"AFWTR","MEAN_MOTION":"14.98339956","DECAY_DATE":null,"TLE_LINE2":"2 49133  69.9974 135.4019 0003216 239.5752 120.5089 14.98339956 62947","COUNTRY_CODE":"US","OBJECT_ID":"2021-082D","PERIOD":"96.106","FILE":"3643999","CLASSIFICATION_TYPE":"U"},{"ELEMENT_SET_NO":"999","MEAN_ANOMALY":"104.7919","CENTER_NAME":"EARTH","PERIAPSIS":"569.915","OBJECT_TYPE":"PAYLOAD","MEAN_MOTION_DOT":"0.00002149","TLE_LINE1":"1 49134U 21082E   22307.60893938  .00002149  00000-0  18793-3 0  9991","RA_OF_ASC_NODE":"135.7625","BSTAR":"0.00018793000000","SEMIMAJOR_AXIS":"6950.229","NORAD_CAT_ID":"49134","RCS_SIZE":"LARGE","REV_AT_EPOCH":"6412","ECCENTRICITY":"0.00031360","MEAN_ELEMENT_THEORY":"SGP4","REF_FRAME":"TEME","CLASSIFICATION_TYPE":"U","FILE":"3644033","PERIOD":"96.108","OBJECT_ID":"2021-082E","COUNTRY_CODE":"US","TLE_LINE2":"2 49134  69.9987 135.7625 0003136 255.2893 104.7919 14.98318174 64127","DECAY_DATE":null,"MEAN_MOTION":"14.98318174","SITE":"AFWTR","APOAPSIS":"574.274","OBJECT_NAME":"STARLINK-3078","ARG_OF_PERICENTER":"255.2893","EPHEMERIS_TYPE":"0","INCLINATION":"69.9987","GP_ID":"216863319","TIME_SYSTEM":"UTC","LAUNCH_DATE":"2021-09-14","MEAN_MOTION_DDOT":"0.0000000000000","EPOCH":"2022-11-03T14:36:52.362432"}];
